[{"OBJECT_NAME":"STARLINK-3594","OBJECT_ID":"2022-022AV","EPOCH":"2026-03-09T04:52:32.118528","MEAN_MOTION":15.08861203,"ECCENTRICITY":0.00014175,"INCLINATION":53.2192,"RA_OF_ASC_NODE":1.3024,"ARG_OF_PERICENTER":91.6222,"MEAN_ANOMALY":268.4932,"EPHEMERIS_TYPE":0,"CLASSIFICATION_TYPE":"U","NORAD_CAT_ID":51895,"ELEMENT_SET_NO":999,"REV_AT_EPOCH":22317,"BSTAR":0.000112297,"MEAN_MOTION_DOT":1.501e-5,"MEAN_MOTION_DDOT":0},{"OBJECT_NAME":"OBJECT G","OBJECT_ID":"2025-292G","EPOCH":"2026-03-09T22:41:34.708704","MEAN_MOTION":15.05879657,"ECCENTRICITY":0.00150455,"INCLINATION":97.6425,"RA_OF_ASC_NODE":145.7524,"ARG_OF_PERICENTER":352.95,"MEAN_ANOMALY":7.1513,"EPHEMERIS_TYPE":0,"CLASSIFICATION_TYPE":"U","NORAD_CAT_ID":66999,"ELEMENT_SET_NO":999,"REV_AT_EPOCH":1351,"BSTAR":0.00047153864,"MEAN_MOTION_DOT":6.807e-5,"MEAN_MOTION_DDOT":0}]
